{"spkid": "50309499", "covariance": {"epoch": "2455389.5", "data": [["1.201731440974978E-14", "-1.529216660694328E-14", "1.703333137241195E-12", "-1.692831727648274E-12", "3.953376234277858E-12", "-2.804396605739543E-13"], ["-1.529216660694328E-14", "1.946735408740008E-14", "-2.148972867348446E-12", "2.155843805972139E-12", "-5.025069524898829E-12", "3.554760665037885E-13"], ["1.703333137241195E-12", "-2.148972867348446E-12", "1.062487965656033E-9", "-2.6261115358805E-10", "1.160666352313061E-9", "-9.527059889909241E-12"], ["-1.692831727648274E-12", "2.155843805972139E-12", "-2.6261115358805E-10", "2.064543342278779E-8", "-2.097359753217602E-8", "-4.196709663934153E-10"], ["3.953376234277858E-12", "-5.025069524898829E-12", "1.160666352313061E-9", "-2.097359753217602E-8", "2.217912282607665E-8", "3.825190733440306E-10"], ["-2.804396605739543E-13", "3.554760665037885E-13", "-9.527059889909241E-12", "-4.196709663934153E-10", "3.825190733440306E-10", "9.731731080322865E-11"]], "elements": [{"label": "e", "units": null, "value": ".2279960736074058", "title": "eccentricity", "name": "e", "sigma": 1.09623512121031e-07}, {"sigma": 1.39525460355449e-07, "name": "q", "units": "au", "value": ".9882394825920429", "title": "perihelion distance", "label": "q"}, {"label": "tp", "units": "TDB", "title": "time of perihelion passage", "value": "2455415.248396689661", "name": "tp", "sigma": 3.25958274270808e-05}, {"units": "deg", "title": "longitude of the ascending node", "value": "93.10079661253985", "sigma": 0.0001436851885992, "name": "om", "label": "node"}, {"units": "deg", "title": "argument of perihelion", "value": "88.68629421402153", "name": "w", "sigma": 0.00014892656857014, "label": "peri"}, {"label": "i", "units": "deg", "value": "2.23999264485914", "title": "inclination", "sigma": 9.86495366452517e-06, "name": "i"}], "labels": ["e", "q", "tp", "node", "peri", "i"]}, "elements": [{"label": "e", "units": null, "title": "eccentricity", "value": ".2276859380476946", "sigma": "1.0955E-7", "name": "e"}, {"label": "a", "sigma": "2.3813E-9", "name": "a", "units": "au", "value": "1.279806356163359", "title": "semi-major axis"}, {"label": "q", "units": "au", "title": "perihelion distance", "value": ".9884124454409026", "name": "q", "sigma": "1.3947E-7"}, {"label": "i", "units": "deg", "value": "2.240058449291269", "title": "inclination; angle with respect to x-y ecliptic plane", "name": "i", "sigma": "9.8642E-6"}, {"name": "om", "sigma": ".00014376", "title": "longitude of the ascending node", "value": "93.04650098851563", "units": "deg", "label": "node"}, {"label": "peri", "name": "w", "sigma": ".00014904", "title": "argument of perihelion", "value": "88.78698855481014", "units": "deg"}, {"name": "ma", "sigma": "3.0847E-5", "title": "mean anomaly", "value": "337.1825931880911", "units": "deg", "label": "M"}, {"value": "2461234.018039294108", "title": "time of perihelion passage", "units": "TDB", "sigma": "4.5372E-5", "name": "tp", "label": "tp"}, {"label": "period", "title": "sidereal orbital period", "value": "528.8284617681049", "units": "d", "sigma": "1.4759E-6", "name": "per"}, {"units": "deg/d", "title": "mean motion", "value": ".680750046615045", "sigma": "1.8999E-9", "name": "n", "label": "n"}, {"label": "Q", "units": "au", "value": "1.571200266885815", "title": "aphelion distance", "name": "ad", "sigma": "2.9234E-9"}], "epoch": "2461200.5"}